start=new Date('2022-11-08T00:00:00.000Z').valueOf();
sats=[{"INCLINATION":"53.0541","MEAN_ANOMALY":"267.6918","TLE_LINE2":"2 47568  53.0541 108.8602 0001440  92.4236 267.6918 15.06396454 97558","MEAN_ELEMENT_THEORY":"SGP4","TLE_LINE1":"1 47568U 21009W   22311.81946532  .00003113  00000-0  22779-3 0  9997","RCS_SIZE":"LARGE","SEMIMAJOR_AXIS":"6925.359","ECCENTRICITY":"0.00014400","BSTAR":"0.00022779000000","OBJECT_TYPE":"PAYLOAD","DECAY_DATE":null,"REF_FRAME":"TEME","EPOCH":"2022-11-07T19:40:01.803648","PERIOD":"95.592","MEAN_MOTION_DOT":"0.00003113","NORAD_CAT_ID":"47568","CLASSIFICATION_TYPE":"U","MEAN_MOTION_DDOT":"0.0000000000000","OBJECT_NAME":"STARLINK-1967","SITE":"AFETR","EPHEMERIS_TYPE":"0","OBJECT_ID":"2021-009W","REV_AT_EPOCH":"9755","RA_OF_ASC_NODE":"108.8602","TIME_SYSTEM":"UTC","COUNTRY_CODE":"US","ELEMENT_SET_NO":"999","GP_ID":"217081804","APOAPSIS":"548.222","LAUNCH_DATE":"2021-02-04","CENTER_NAME":"EARTH","PERIAPSIS":"546.227","MEAN_MOTION":"15.06396454","FILE":"3648090","ARG_OF_PERICENTER":"92.4236"},{"OBJECT_NAME":"STARLINK-1968","MEAN_MOTION_DDOT":"0.0000000000000","PERIOD":"91.139","MEAN_MOTION_DOT":"0.00184879","CLASSIFICATION_TYPE":"U","NORAD_CAT_ID":"47569","SITE":"AFETR","TLE_LINE2":"2 47569  53.0521 322.5599 0008424  33.3467 326.8083 15.79998035 98977","INCLINATION":"53.0521","MEAN_ANOMALY":"326.8083","BSTAR":"0.00095593000000","OBJECT_TYPE":"PAYLOAD","DECAY_DATE":null,"EPOCH":"2022-11-07T06:34:00.120864","REF_FRAME":"TEME","MEAN_ELEMENT_THEORY":"SGP4","RCS_SIZE":"LARGE","TLE_LINE1":"1 47569U 21009X   22311.27361251  .00184879  00000-0  95593-3 0  9990","ECCENTRICITY":"0.00084240","SEMIMAJOR_AXIS":"6708.583","LAUNCH_DATE":"2021-02-04","ELEMENT_SET_NO":"999","GP_ID":"217104942","APOAPSIS":"336.100","ARG_OF_PERICENTER":"33.3467","CENTER_NAME":"EARTH","PERIAPSIS":"324.797","MEAN_MOTION":"15.79998035","FILE":"3648233","OBJECT_ID":"2021-009X","EPHEMERIS_TYPE":"0","COUNTRY_CODE":"US","REV_AT_EPOCH":"9897","RA_OF_ASC_NODE":"322.5599","TIME_SYSTEM":"UTC"},{"SITE":"AFETR","OBJECT_NAME":"STARLINK-1969","MEAN_MOTION_DDOT":"0.0000000000000","NORAD_CAT_ID":"47570","CLASSIFICATION_TYPE":"U","MEAN_MOTION_DOT":"0.00005337","PERIOD":"95.592","REF_FRAME":"TEME","EPOCH":"2022-11-07T21:04:57.366336","DECAY_DATE":null,"OBJECT_TYPE":"PAYLOAD","BSTAR":"0.00037688000000","RCS_SIZE":"LARGE","TLE_LINE1":"1 47570U 21009Y   22311.87844174  .00005337  00000-0  37688-3 0  9990","ECCENTRICITY":"0.00013470","SEMIMAJOR_AXIS":"6925.348","MEAN_ELEMENT_THEORY":"SGP4","TLE_LINE2":"2 47570  53.0552  68.5820 0001347 103.2365 256.8774 15.06400189 98133","MEAN_ANOMALY":"256.8774","INCLINATION":"53.0552","ARG_OF_PERICENTER":"103.2365","FILE":"3648091","MEAN_MOTION":"15.06400189","PERIAPSIS":"546.280","CENTER_NAME":"EARTH","LAUNCH_DATE":"2021-02-04","APOAPSIS":"548.146","GP_ID":"217081555","ELEMENT_SET_NO":"999","COUNTRY_CODE":"US","RA_OF_ASC_NODE":"68.5820","TIME_SYSTEM":"UTC","REV_AT_EPOCH":"9813","OBJECT_ID":"2021-009Y","EPHEMERIS_TYPE":"0"},{"OBJECT_ID":"2021-009Z","EPHEMERIS_TYPE":"0","COUNTRY_CODE":"US","REV_AT_EPOCH":"9734","TIME_SYSTEM":"UTC","RA_OF_ASC_NODE":"79.7376","LAUNCH_DATE":"2021-02-04","GP_ID":"217105445","ELEMENT_SET_NO":"999","APOAPSIS":"548.198","ARG_OF_PERICENTER":"111.1798","PERIAPSIS":"546.338","MEAN_MOTION":"15.06382156","CENTER_NAME":"EARTH","FILE":"3648233","TLE_LINE2":"2 47571  53.0560  79.7376 0001343 111.1798 248.9335 15.06382156 97347","MEAN_ANOMALY":"248.9335","INCLINATION":"53.0560","BSTAR":"0.00003170500000","OBJECT_TYPE":"PAYLOAD","EPOCH":"2022-11-07T14:57:23.595264","REF_FRAME":"TEME","DECAY_DATE":null,"MEAN_ELEMENT_THEORY":"SGP4","SEMIMAJOR_AXIS":"6925.403","TLE_LINE1":"1 47571U 21009Z   22311.62318976  .00000191  00000-0  31705-4 0  9998","RCS_SIZE":"LARGE","ECCENTRICITY":"0.00013430","MEAN_MOTION_DDOT":"0.0000000000000","OBJECT_NAME":"STARLINK-1970","PERIOD":"95.593","NORAD_CAT_ID":"47571","CLASSIFICATION_TYPE":"U","MEAN_MOTION_DOT":"0.00000191","SITE":"AFETR"},{"MEAN_ELEMENT_THEORY":"SGP4","TLE_LINE1":"1 47572U 21009AA  22311.80381107  .00006514  00000-0  45562-3 0  9995","RCS_SIZE":"LARGE","SEMIMAJOR_AXIS":"6925.313","ECCENTRICITY":"0.00010000","OBJECT_TYPE":"PAYLOAD","BSTAR":"0.00045562000000","DECAY_DATE":null,"REF_FRAME":"TEME","EPOCH":"2022-11-07T19:17:29.276448","INCLINATION":"53.0534","MEAN_ANOMALY":"257.5485","TLE_LINE2":"2 47572  53.0534  78.9259 0001000 102.5616 257.5485 15.06411714 97371","SITE":"AFETR","PERIOD":"95.591","MEAN_MOTION_DOT":"0.00006514","CLASSIFICATION_TYPE":"U","NORAD_CAT_ID":"47572","MEAN_MOTION_DDOT":"0.0000000000000","OBJECT_NAME":"STARLINK-1971","REV_AT_EPOCH":"9737","TIME_SYSTEM":"UTC","RA_OF_ASC_NODE":"78.9259","COUNTRY_CODE":"US","EPHEMERIS_TYPE":"0","OBJECT_ID":"2021-009AA","CENTER_NAME":"EARTH","PERIAPSIS":"546.485","MEAN_MOTION":"15.06411714","FILE":"3648233","ARG_OF_PERICENTER":"102.5616","ELEMENT_SET_NO":"999","GP_ID":"217104192","APOAPSIS":"547.870","LAUNCH_DATE":"2021-02-04"},{"ARG_OF_PERICENTER":"107.3191","FILE":"3648233","MEAN_MOTION":"15.06402912","PERIAPSIS":"546.315","CENTER_NAME":"EARTH","LAUNCH_DATE":"2021-02-04","APOAPSIS":"548.095","GP_ID":"217104442","ELEMENT_SET_NO":"999","COUNTRY_CODE":"US","RA_OF_ASC_NODE":"78.7175","TIME_SYSTEM":"UTC","REV_AT_EPOCH":"9737","OBJECT_ID":"2021-009AB","EPHEMERIS_TYPE":"0","SITE":"AFETR","MEAN_MOTION_DDOT":"0.0000000000000","OBJECT_NAME":"STARLINK-1975","NORAD_CAT_ID":"47573","CLASSIFICATION_TYPE":"U","MEAN_MOTION_DOT":"0.00003266","PERIOD":"95.592","REF_FRAME":"TEME","EPOCH":"2022-11-07T20:21:08.704224","DECAY_DATE":null,"OBJECT_TYPE":"PAYLOAD","BSTAR":"0.00023802000000","TLE_LINE1":"1 47573U 21009AB  22311.84801741  .00003266  00000-0  23802-3 0  9995","RCS_SIZE":"LARGE","SEMIMAJOR_AXIS":"6925.340","ECCENTRICITY":"0.00012850","MEAN_ELEMENT_THEORY":"SGP4","TLE_LINE2":"2 47573  53.0534  78.7175 0001285 107.3191 252.7939 15.06402912 97374","MEAN_ANOMALY":"252.7939","INCLINATION":"53.0534"},{"GP_ID":"217105694","ELEMENT_SET_NO":"999","APOAPSIS":"548.110","LAUNCH_DATE":"2021-02-04","PERIAPSIS":"546.338","MEAN_MOTION":"15.06396656","CENTER_NAME":"EARTH","FILE":"3648233","ARG_OF_PERICENTER":"102.6925","EPHEMERIS_TYPE":"0","OBJECT_ID":"2021-009AC","REV_AT_EPOCH":"9695","TIME_SYSTEM":"UTC","RA_OF_ASC_NODE":"108.6548","COUNTRY_CODE":"US","PERIOD":"95.592","NORAD_CAT_ID":"47574","CLASSIFICATION_TYPE":"U","MEAN_MOTION_DOT":"0.00001235","MEAN_MOTION_DDOT":"0.0000000000000","OBJECT_NAME":"STARLINK-1976","SITE":"AFETR","MEAN_ANOMALY":"257.4206","INCLINATION":"53.0548","TLE_LINE2":"2 47574  53.0548 108.6548 0001279 102.6925 257.4206 15.06396656 96952","MEAN_ELEMENT_THEORY":"SGP4","TLE_LINE1":"1 47574U 21009AC  22311.86368882  .00001235  00000-0  10180-3 0  9991","SEMIMAJOR_AXIS":"6925.359","RCS_SIZE":"LARGE","ECCENTRICITY":"0.00012790","OBJECT_TYPE":"PAYLOAD","BSTAR":"0.00010180000000","REF_FRAME":"TEME","EPOCH":"2022-11-07T20:43:42.714048","DECAY_DATE":null},{"INCLINATION":"53.0551","MEAN_ANOMALY":"251.7438","TLE_LINE2":"2 47575  53.0551 109.3037 0001263 108.3688 251.7438 15.06393269 96939","ECCENTRICITY":"0.00012630","TLE_LINE1":"1 47575U 21009AD  22311.71994474  .00001201  00000-0  99497-4 0  9990","RCS_SIZE":"LARGE","SEMIMAJOR_AXIS":"6925.369","MEAN_ELEMENT_THEORY":"SGP4","DECAY_DATE":null,"EPOCH":"2022-11-07T17:16:43.225536","REF_FRAME":"TEME","OBJECT_TYPE":"PAYLOAD","BSTAR":"0.00009949700000","MEAN_MOTION_DOT":"0.00001201","CLASSIFICATION_TYPE":"U","NORAD_CAT_ID":"47575","PERIOD":"95.593","OBJECT_NAME":"STARLINK-1977","MEAN_MOTION_DDOT":"0.0000000000000","SITE":"AFETR","EPHEMERIS_TYPE":"0","OBJECT_ID":"2021-009AD","TIME_SYSTEM":"UTC","RA_OF_ASC_NODE":"109.3037","REV_AT_EPOCH":"9693","COUNTRY_CODE":"US","APOAPSIS":"548.109","ELEMENT_SET_NO":"999","GP_ID":"217105945","LAUNCH_DATE":"2021-02-04","FILE":"3648233","CENTER_NAME":"EARTH","PERIAPSIS":"546.360","MEAN_MOTION":"15.06393269","ARG_OF_PERICENTER":"108.3688"},{"MEAN_ANOMALY":"243.8307","INCLINATION":"53.0562","TLE_LINE2":"2 47576  53.0562  70.0526 0001296 116.2815 243.8307 15.06392233 97472","MEAN_ELEMENT_THEORY":"SGP4","SEMIMAJOR_AXIS":"6925.372","TLE_LINE1":"1 47576U 21009AE  22311.55407106  .00001117  00000-0  93866-4 0  9994","RCS_SIZE":"LARGE","ECCENTRICITY":"0.00012960","OBJECT_TYPE":"PAYLOAD","BSTAR":"0.00009386600000","REF_FRAME":"TEME","EPOCH":"2022-11-07T13:17:51.739584","DECAY_DATE":null,"PERIOD":"95.593","CLASSIFICATION_TYPE":"U","NORAD_CAT_ID":"47576","MEAN_MOTION_DOT":"0.00001117","OBJECT_NAME":"STARLINK-1978","MEAN_MOTION_DDOT":"0.0000000000000","SITE":"AFETR","EPHEMERIS_TYPE":"0","OBJECT_ID":"2021-009AE","REV_AT_EPOCH":"9747","RA_OF_ASC_NODE":"70.0526","TIME_SYSTEM":"UTC","COUNTRY_CODE":"US","GP_ID":"217104693","ELEMENT_SET_NO":"999","APOAPSIS":"548.135","LAUNCH_DATE":"2021-02-04","MEAN_MOTION":"15.06392233","PERIAPSIS":"546.340","CENTER_NAME":"EARTH","FILE":"3648233","ARG_OF_PERICENTER":"116.2815"},{"ARG_OF_PERICENTER":"107.3271","FILE":"3648233","PERIAPSIS":"546.248","MEAN_MOTION":"15.06399226","CENTER_NAME":"EARTH","LAUNCH_DATE":"2021-02-04","APOAPSIS":"548.184","GP_ID":"217104943","ELEMENT_SET_NO":"999","COUNTRY_CODE":"US","RA_OF_ASC_NODE":"83.9713","TIME_SYSTEM":"UTC","REV_AT_EPOCH":"9730","OBJECT_ID":"2021-009AF","EPHEMERIS_TYPE":"0","SITE":"AFETR","MEAN_MOTION_DDOT":"0.0000000000000","OBJECT_NAME":"STARLINK-1979","NORAD_CAT_ID":"47577","CLASSIFICATION_TYPE":"U","MEAN_MOTION_DOT":"0.00006203","PERIOD":"95.592","EPOCH":"2022-11-07T19:03:32.298912","REF_FRAME":"TEME","DECAY_DATE":null,"OBJECT_TYPE":"PAYLOAD","BSTAR":"0.00043493000000","TLE_LINE1":"1 47577U 21009AF  22311.79412383  .00006203  00000-0  43493-3 0  9995","ECCENTRICITY":"0.00013980","RCS_SIZE":"LARGE","SEMIMAJOR_AXIS":"6925.351","MEAN_ELEMENT_THEORY":"SGP4","TLE_LINE2":"2 47577  53.0552  83.9713 0001398 107.3271 252.7871 15.06399226 97309","MEAN_ANOMALY":"252.7871","INCLINATION":"53.0552"}];
